NORAD_CAT_ID,OBJECT_NAME,OBJECT_TYPE,EPOCH,MEAN_MOTION,ECCENTRICITY,INCLINATION,RA_OF_ASC_NODE,ARG_OF_PERICENTER,MEAN_ANOMALY,BSTAR,MEAN_MOTION_DOT,MEAN_MOTION_DDOT,TLE_LINE0,TLE_LINE1,TLE_LINE2,SEMIMAJOR_AXIS,PERIOD,APOGEE,PERIGEE,DECAYED
53622.0,STARLINK-4568,PAYLOAD,2024-04-03 14:00:59,15.08843011,0.0001697,53.2179,159.0686,102.3459,257.7723,0.00013289,1.828e-05,0.0,0 STARLINK-4568,1 53622U 22104AL  24094.58402190  .00001828  00000-0  13289-3 0  9990,2 53622  53.2179 159.0686 0001697 102.3459 257.7723 15.08843011 89303,6917.871,95.437,540.91,538.562,0.0
53622.0,STARLINK-4568,PAYLOAD,2024-04-03 21:57:55,15.08844385,0.0001674,53.2179,157.5817,101.7999,258.3181,0.00015808,2.229e-05,0.0,0 STARLINK-4568,1 53622U 22104AL  24094.91522121  .00002229  00000-0  15808-3 0  9999,2 53622  53.2179 157.5817 0001674 101.7999 258.3181 15.08844385 89354,6917.867,95.437,540.89,538.574,0.0
53622.0,STARLINK-4568,PAYLOAD,2024-04-04 10:41:00,15.08840527,0.0001354,53.2171,155.2049,94.2559,265.8588,8.8532e-05,1.121e-05,0.0,0 STARLINK-4568,1 53622U 22104AL  24095.44514154  .00001121  00000-0  88532-4 0  9990,2 53622  53.2171 155.2049 0001354  94.2559 265.8588 15.08840527 88752,6917.879,95.438,540.68,538.807,0.0
53622.0,STARLINK-4568,PAYLOAD,2024-04-05 10:31:46,15.08844231,0.0001411,53.2167,150.7448,91.7869,268.3285,8.0159e-05,9.88e-06,0.0,0 STARLINK-4568,1 53622U 22104AL  24096.43873775  .00000988  00000-0  80159-4 0  9994,2 53622  53.2167 150.7448 0001411  91.7869 268.3285 15.08844231 89580,6917.867,95.437,540.709,538.756,0.0
53622.0,STARLINK-4568,PAYLOAD,2024-04-05 20:04:05,15.08848611,0.0001401,53.2174,148.9602,93.2571,266.8581,0.00012881,1.763e-05,0.0,0 STARLINK-4568,1 53622U 22104AL  24096.83617290  .00001763  00000-0  12881-3 0  9994,2 53622  53.2174 148.9602 0001401  93.2571 266.8581 15.08848611 88964,6917.854,95.437,540.688,538.75,0.0
53622.0,STARLINK-4568,PAYLOAD,2024-04-06 04:01:01,15.08835958,0.000159,53.2162,147.4733,89.2397,270.8778,-7.4496e-06,-4.07e-06,0.0,0 STARLINK-4568,1 53622U 22104AL  24097.16738026 -.00000407  00000-0 -74496-5 0  9990,2 53622  53.2162 147.4733 0001590  89.2397 270.8778 15.08835958 89010,6917.893,95.438,540.858,538.658,0.0
53622.0,STARLINK-4568,PAYLOAD,2024-04-06 13:33:20,15.08836351,0.0001454,53.2169,145.6891,88.5672,271.5487,3.3929e-05,2.52e-06,0.0,0 STARLINK-4568,1 53622U 22104AL  24097.56482296  .00000252  00000-0  33929-4 0  9990,2 53622  53.2169 145.6891 0001454  88.5672 271.5487 15.08836351 89753,6917.892,95.438,540.762,538.751,0.0
53622.0,STARLINK-4568,PAYLOAD,2024-04-06 19:54:52,15.0884168,0.0001528,53.2175,144.5,91.4359,268.6809,5.2267e-05,5.44e-06,0.0,0 STARLINK-4568,1 53622U 22104AL  24097.82977902  .00000544  00000-0  52267-4 0  9992,2 53622  53.2175 144.5000 0001528  91.4359 268.6809 15.08841680 89797,6917.875,95.437,540.797,538.683,0.0
53622.0,STARLINK-4568,PAYLOAD,2024-04-07 11:48:45,15.08826491,0.0001583,53.2189,141.5279,91.1273,268.9901,-1.5562e-05,-5.36e-06,0.0,0 STARLINK-4568,1 53622U 22104AL  24098.49219418 -.00000536  00000-0 -15562-4 0  9997,2 53622  53.2189 141.5279 0001583  91.1273 268.9901 15.08826491 89216,6917.922,95.438,540.882,538.692,0.0
53622.0,STARLINK-4568,PAYLOAD,2024-04-07 13:24:08,15.08832105,0.0001634,53.2187,141.23,93.8122,266.3057,-7.8682e-05,-1.54e-05,0.0,0 STARLINK-4568,1 53622U 22104AL  24098.55843209 -.00001540  00000-0 -78682-4 0  9993,2 53622  53.2187 141.2300 0001634  93.8122 266.3057 15.08832105 89904,6917.905,95.438,540.9,538.639,0.0
53622.0,STARLINK-4568,PAYLOAD,2024-04-07 19:45:40,15.08836996,0.0001538,53.2173,140.0404,93.8976,266.2192,-1.0921e-05,-4.62e-06,0.0,0 STARLINK-4568,1 53622U 22104AL  24098.82338792 -.00000462  00000-0 -10921-4 0  9993,2 53622  53.2173 140.0404 0001538  93.8976 266.2192 15.08836996 89261,6917.89,95.438,540.819,538.691,0.0
53622.0,STARLINK-4568,PAYLOAD,2024-04-08 11:39:31,15.08843388,0.0001474,53.2167,137.0649,88.594,271.5221,0.00014484,2.018e-05,0.0,0 STARLINK-4568,1 53622U 22104AL  24099.48578259  .00002018  00000-0  14484-3 0  9994,2 53622  53.2167 137.0649 0001474  88.5940 271.5221 15.08843388 90045,6917.87,95.437,540.755,538.715,0.0
53622.0,STARLINK-4568,PAYLOAD,2024-04-08 19:36:26,15.08848677,0.0001509,53.2168,135.577,80.2967,279.8195,0.00018339,2.633e-05,0.0,0 STARLINK-4568,1 53622U 22104AL  24099.81697857  .00002633  00000-0  18339-3 0  9993,2 53622  53.2168 135.5770 0001509  80.2967 279.8195 15.08848677 89417,6917.854,95.437,540.763,538.675,0.0
53622.0,STARLINK-4568,PAYLOAD,2024-04-09 01:57:58,15.08868783,0.0001665,53.2168,134.3881,83.2899,276.8282,-0.00018738,-3.271e-05,0.0,0 STARLINK-4568,1 53622U 22104AL  24100.08192870 -.00003271  00000-0 -18738-3 0  9994,2 53622  53.2168 134.3881 0001665  83.2899 276.8282 15.08868783 89455,6917.792,95.436,540.809,538.506,0.0
53622.0,STARLINK-4568,PAYLOAD,2024-04-09 11:30:20,15.08813682,0.0001365,53.2156,132.6036,86.049,274.0658,-0.00022455,-3.857e-05,0.0,0 STARLINK-4568,1 53622U 22104AL  24100.47940052 -.00003857  00000-0 -22455-3 0  9991,2 53622  53.2156 132.6036 0001365  86.0490 274.0658 15.08813682 89512,6917.961,95.439,540.77,538.882,0.0
53622.0,STARLINK-4568,PAYLOAD,2024-04-09 19:27:15,15.08821309,0.0001294,53.2161,131.1174,83.1604,276.9536,-0.00010648,-1.981e-05,0.0,0 STARLINK-4568,1 53622U 22104AL  24100.81060056 -.00001981  00000-0 -10648-3 0  9993,2 53622  53.2161 131.1174 0001294  83.1604 276.9536 15.08821309 89567,6917.938,95.439,540.698,538.907,0.0
53622.0,STARLINK-4568,PAYLOAD,2024-04-10 08:10:20,15.08836362,0.000119,53.2161,128.7368,79.3001,280.8125,0.00016168,2.286e-05,0.0,0 STARLINK-4568,1 53622U 22104AL  24101.34051678  .00002286  00000-0  16168-3 0  9992,2 53622  53.2161 128.7368 0001190  79.3001 280.8125 15.08836362 89649,6917.892,95.438,540.58,538.933,0.0
53622.0,STARLINK-4568,PAYLOAD,2024-04-10 19:18:02,15.08843724,0.0001273,53.2151,126.6575,71.1437,288.9693,0.00052818,8.129e-05,0.0,0 STARLINK-4568,1 53622U 22104AL  24101.80419830  .00008129  00000-0  52818-3 0  9995,2 53622  53.2151 126.6575 0001273  71.1437 288.9693 15.08843724 90393,6917.869,95.437,540.615,538.853,0.0
53622.0,STARLINK-4568,PAYLOAD,2024-04-11 11:11:53,15.08862696,0.0001259,53.2148,123.6828,70.7538,289.359,0.00091036,0.00014239,0.0,0 STARLINK-4568,1 53622U 22104AL  24102.46659455  .00014239  00000-0  91036-3 0  9991,2 53622  53.2148 123.6828 0001259  70.7538 289.3590 15.08862696 89813,6917.811,95.436,540.547,538.805,0.0
53622.0,STARLINK-4568,PAYLOAD,2024-04-12 04:41:07,15.0885391,0.0001343,53.2153,120.4104,76.2753,283.8389,0.00022514,3.298e-05,0.0,0 STARLINK-4568,1 53622U 22104AL  24103.19522986  .00003298  00000-0  22514-3 0  9998,2 53622  53.2153 120.4104 0001343  76.2753 283.8389 15.08853910 89921,6917.838,95.437,540.632,538.774,0.0
53622.0,STARLINK-4568,PAYLOAD,2024-04-12 11:02:40,15.08851715,0.00013,53.2154,119.2208,75.2535,284.8601,0.00019324,2.79e-05,0.0,0 STARLINK-4568,1 53622U 22104AL  24103.46018919  .00002790  00000-0  19324-3 0  9995,2 53622  53.2154 119.2208 0001300  75.2535 284.8601 15.08851715 90643,6917.845,95.437,540.609,538.81,0.0
53622.0,STARLINK-4568,PAYLOAD,2024-04-13 04:31:54,15.08841922,0.0001358,53.2159,115.9495,79.1295,280.985,-5.3314e-05,-1.136e-05,0.0,0 STARLINK-4568,1 53622U 22104AL  24104.18883041 -.00001136  00000-0 -53314-4 0  9994,2 53622  53.2159 115.9495 0001358  79.1295 280.9850 15.08841922 90077,6917.875,95.437,540.679,538.8,0.0
53622.0,STARLINK-4568,PAYLOAD,2024-04-13 07:42:41,15.08841292,0.000129,53.2167,115.3543,78.794,281.3197,-3.4061e-05,-8.3e-06,0.0,0 STARLINK-4568,1 53622U 22104AL  24104.32131417 -.00000830  00000-0 -34061-4 0  9991,2 53622  53.2167 115.3543 0001290  78.7940 281.3197 15.08841292 90777,6917.876,95.437,540.634,538.849,0.0
53622.0,STARLINK-4568,PAYLOAD,2024-04-14 09:08:51,15.08842704,0.0001324,53.217,110.5969,93.8482,266.2661,6.1622e-05,6.93e-06,0.0,0 STARLINK-4568,1 53622U 22104AL  24105.38114913  .00000693  00000-0  61622-4 0  9998,2 53622  53.2170 110.5969 0001324  93.8482 266.2661 15.08842704 90257,6917.872,95.437,540.653,538.821,0.0
53622.0,STARLINK-4568,PAYLOAD,2024-04-15 08:59:38,15.0884273,0.0001363,53.2172,106.1375,95.0845,265.0302,0.00015774,2.224e-05,0.0,0 STARLINK-4568,1 53622U 22104AL  24106.37474831  .00002224  00000-0  15774-3 0  9994,2 53622  53.2172 106.1375 0001363  95.0845 265.0302 15.08842730 91081,6917.872,95.437,540.68,538.794,0.0
53622.0,STARLINK-4568,PAYLOAD,2024-04-16 05:39:39,15.08838789,0.0001493,53.2173,102.272,90.2744,269.842,4.4002e-05,4.12e-06,0.0,0 STARLINK-4568,1 53622U 22104AL  24107.23587434  .00000412  00000-0  44002-4 0  9998,2 53622  53.2173 102.2720 0001493  90.2744 269.8420 15.08838789 90533,6917.884,95.438,540.782,538.716,0.0
53622.0,STARLINK-4568,PAYLOAD,2024-04-16 08:50:25,15.08844611,0.0001666,53.2179,101.6758,104.8009,255.3168,3.6704e-05,2.96e-06,0.0,0 STARLINK-4568,1 53622U 22104AL  24107.36834987  .00000296  00000-0  36704-4 0  9990,2 53622  53.2179 101.6758 0001666 104.8009 255.3168 15.08844611 91239,6917.866,95.437,540.884,538.579,0.0
53622.0,STARLINK-4568,PAYLOAD,2024-04-16 16:47:20,15.08854492,0.0001496,53.218,100.1886,88.2478,271.8685,0.00018083,2.592e-05,0.0,0 STARLINK-4568,1 53622U 22104AL  24107.69953965  .00002592  00000-0  18083-3 0  9994,2 53622  53.2180 100.1886 0001496  88.2478 271.8685 15.08854492 90608,6917.836,95.437,540.736,538.666,0.0
53622.0,STARLINK-4568,PAYLOAD,2024-04-17 05:30:25,15.088455,0.0001469,53.2185,97.8075,85.5903,274.5257,8.2915e-05,1.032e-05,0.0,0 STARLINK-4568,1 53622U 22104AL  24108.22946545  .00001032  00000-0  82915-4 0  9994,2 53622  53.2185  97.8075 0001469  85.5903 274.5257 15.08845500 90681,6917.864,95.437,540.745,538.712,0.0
53622.0,STARLINK-4568,PAYLOAD,2024-04-17 08:41:12,15.08840735,0.0001405,53.2178,97.2138,83.9601,276.1551,0.0001439,2.003e-05,0.0,0 STARLINK-4568,1 53622U 22104AL  24108.36194544  .00002003  00000-0  14390-3 0  9993,2 53622  53.2178  97.2138 0001405  83.9601 276.1551 15.08840735 91382,6917.878,95.438,540.715,538.771,0.0
